GLOBALSTAR M045 [-]     
1 25676U 99019A   23330.60757774 -.00000056  00000+0  32735-3 0  9992
2 25676  51.9943 125.7854 0001594 126.5512 312.5476 12.27020375123599
GLOBALSTAR M019 [-]     
1 25677U 99019B   23330.12671837  .00000011  00000+0  10546-2 0  9990
2 25677  51.9860 217.4951 0000110  25.1985 122.4758 12.13845904116036
GLOBALSTAR M044 [-]     
1 25678U 99019C   23330.57520223 -.00000087  00000+0 -40576-4 0  9995
2 25678  51.9958  96.4704 0006453  31.6428  98.3043 11.90227298103618
GLOBALSTAR M042 [-]     
1 25679U 99019D   23330.15300870 -.00000037  00000+0  51659-3 0  9991
2 25679  52.0003 217.3072 0002362 188.8675 337.2854 12.22052148115689
GLOBALSTAR M025 [-]     
1 25770U 99031A   23330.49228067 -.00000052  00000+0  47086-3 0  9997
2 25770  51.9849  36.6823 0000915 252.2138 207.0206 11.22547692417845
GLOBALSTAR M049 [-]     
1 25771U 99031B   23330.57392697 -.00000080  00000+0 -49825-3 0  9993
2 25771  51.9904  42.6795 0003449 139.2770 220.8285 11.12100055 54163
GLOBALSTAR M047 [-]     
1 25772U 99031C   23330.53385520 -.00000087  00000+0 -48382-3 0  9991
2 25772  51.9826  94.0657 0015996  10.0570 350.0553 11.31917044406710
GLOBALSTAR M052 [-]     
1 25773U 99031D   23329.71942672  .00000008  00000+0  24883-2 0  9997
2 25773  51.9825 161.2984 0001658 340.9784 100.0564 11.15047422414981
